satname,norad_id,inclination_deg,eccentricity,mean_motion_rev_per_day,perigee_km,apogee_km,l1,l2
STARLINK-1443,45660,53.0542,0.0001349,15.06404556,546.263366852857,548.1318221264501,1 45660U 20035D   25257.40647408  .00000401  00000+0  45781-4 0  9998,2 45660  53.0542 137.9880 0001349  91.1053 269.0090 15.06404556292166
STARLINK-1446,45663,53.0284,0.0007493,15.28570345,474.94638208977085,485.2241139506541,1 45663U 20035G   25257.32390078  .00041046  00000+0  14605-2 0  9999,2 45663  53.0284 109.5635 0007493 104.1810 256.0021 15.28570345292554
STARLINK-1448,45665,53.0524,0.0001241,15.06403359,546.341828627741,548.0606975846449,1 45665U 20035J   25257.41016575  .00002596  00000+0  19307-3 0  9990,2 45665  53.0524 137.9665 0001241  91.1640 268.9492 15.06403359292158
STARLINK-1451,45668,53.0525,0.0001364,15.06400376,546.2657881665536,548.1550229387885,1 45668U 20035M   25257.08215607  .00003300  00000+0  24030-3 0  9996,2 45668  53.0525 139.7582 0001364  95.5614 264.5531 15.06400376292113
STARLINK-1452,45669,53.0509,0.0004441,15.21079763,499.5266990051796,505.6381539997992,1 45669U 20035N   25256.94174918  .00018102  00000+0  81658-3 0  9995,2 45669  53.0509 127.1934 0004441 166.1603 193.9515 15.21079763292273
STARLINK-1453,45670,53.0554,0.0001156,15.06388085,546.4475014231266,548.0486504526834,1 45670U 20035P   25257.29130257  .00000495  00000+0  52154-4 0  9990,2 45670  53.0554 108.5050 0001156  50.9398 309.1693 15.06388085292459
STARLINK-1454,45671,53.0546,0.0001398,15.0640449,546.2296349645476,548.1659585737243,1 45671U 20035Q   25257.36961590  .00001108  00000+0  93235-4 0  9998,2 45671  53.0546 138.1489 0001398  75.6352 284.4792 15.06404490292148
STARLINK-1456,45673,53.0559,0.0001763,15.0639472,546.006798621348,548.4486822288218,1 45673U 20035S   25257.38436607  .00000756  00000+0  69636-4 0  9994,2 45673  53.0559 138.0872 0001763  90.5244 269.5947 15.06394720292163
STARLINK-1457,45674,53.0547,0.000131,15.0639376,546.3234595391368,548.1379058720058,1 45674U 20035T   25257.39173725  .00000468  00000+0  50332-4 0  9998,2 45674  53.0547 138.0528 0001310  85.4364 274.6775 15.06393760292139
STARLINK-1458,45675,53.0549,0.0001236,15.06394911,546.3711800246738,548.0831300437976,1 45675U 20035U   25257.38067664  .00001171  00000+0  97533-4 0  9998,2 45675  53.0549 138.1005 0001236  89.9096 270.2035 15.06394911292120
STARLINK-1460,45676,53.053,0.0001355,15.06400742,546.2708993946226,548.1476682375369,1 45676U 20035V   25256.95312299  .00006390  00000+0  44745-3 0  9992,2 45676  53.0530 140.0193 0001355  77.8076 282.3064 15.06400742292055
STARLINK-1392,45677,53.0552,0.0003148,15.06314755,545.2926519310959,549.6530158825235,1 45677U 20035W   25257.36227165  .00020985  00000+0  14267-2 0  9997,2 45677  53.0552 138.1841 0003148  32.5893 327.5290 15.06314755292157
STARLINK-1394,45679,53.0527,0.0001533,15.06417508,546.0962512515862,548.2195466676067,1 45679U 20035Y   25257.35947090  .00005039  00000+0  35676-3 0  9995,2 45679  53.0527 128.1960 0001533  83.6825 276.4338 15.06417508292290
STARLINK-1402,45685,53.0542,0.0001442,15.06406098,546.1942359425575,548.191501076637,1 45685U 20035AE  25256.92582300  .00001384  00000+0  11175-3 0  9990,2 45685  53.0542 124.5631 0001442  93.1097 267.0057 15.06406098292314
STARLINK-1404,45686,53.0543,0.0001424,15.06404375,546.2119815005963,548.1843169510958,1 45686U 20035AF  25257.05354813  .00001389  00000+0  11213-3 0  9990,2 45686  53.0543 129.5716 0001424  92.4524 267.6628 15.06404375292251
STARLINK-1413,45689,53.056,0.0001432,15.06398868,546.2233169470937,548.2067377677286,1 45689U 20035AJ  25256.93928423  .00000930  00000+0  81337-4 0  9999,2 45689  53.0560 130.0808 0001432  96.9403 263.1749 15.06398868292148
STARLINK-1417,45693,53.0553,0.0001525,15.06405305,546.1391857494673,548.2514121006388,1 45693U 20035AN  25256.93558963  .00000794  00000+0  72202-4 0  9991,2 45693  53.0553 130.1017 0001525  90.9570 269.1594 15.06405305292228
STARLINK-1420,45695,53.0539,0.0001453,15.06398004,546.2114213632203,548.2239294318906,1 45695U 20035AQ  25257.00284139  .00000347  00000+0  42218-4 0  9991,2 45695  53.0539 109.7877 0001453  90.8267 269.2889 15.06398004292520
STARLINK-1422,45696,53.0512,0.0001064,15.06401467,546.4702051900376,547.9439184063876,1 45696U 20035AR  25257.34475102  .00006057  00000+0  42517-3 0  9996,2 45696  53.0512 128.2635 0001064 103.5159 256.5949 15.06401467292287
STARLINK-1351,45697,53.0541,0.0001351,15.06396982,546.2851918492279,548.156423528867,1 45697U 20035AS  25257.32077959  .00000486  00000+0  51534-4 0  9993,2 45697  53.0541 108.3688 0001351  91.3740 268.7404 15.06396982292574
STARLINK-1398,45699,53.0545,0.0007906,15.4143582,436.4789856746065,447.2627821406404,1 45699U 20035AU  25256.73511803  .00098861  00000+0  23048-2 0  9991,2 45699  53.0545  83.9850 0007906 114.3233 245.8598 15.41435820292860
STARLINK-1400,45700,53.0529,0.0001232,15.06403066,546.3489593211516,548.0553628904481,1 45700U 20035AV  25257.29497081  .00001579  00000+0  12485-3 0  9991,2 45700  53.0529 108.4868 0001232  88.9318 271.1812 15.06403066292569
STARLINK-1403,45701,53.0546,0.000133,15.0640271,546.2821819374985,548.1243224445816,1 45701U 20035AW  25256.99272209  .00001427  00000+0  11464-3 0  9999,2 45701  53.0546 109.8425 0001330  90.8368 269.2773 15.06402710292513
STARLINK-1407,45703,53.0429,0.0007038,15.33434449,460.7579628100075,470.3911712117315,1 45703U 20035AY  25257.47650064  .00058173  00000+0  17716-2 0  9999,2 45703  53.0429  76.4938 0007038 195.1731 164.9059 15.33434449293037
STARLINK-1411,45706,53.0552,0.000131,15.26597331,485.09393776218985,486.89233985855935,1 45706U 20035BB  25257.00002315  .00083406  00000+0  31218-2 0  9991,2 45706  53.0552 104.6486 0001310 105.7201 317.0415 15.26597331  5833
STARLINK-1423,45710,53.0541,0.0001345,15.06401095,546.2767429933601,548.1396608526775,1 45710U 20035BF  25256.88583161 -.00000148  00000+0  89829-5 0  9991,2 45710  53.0541 110.3241 0001345  92.7351 267.3792 15.06401095292504
STARLINK-1433,45711,53.0538,0.0001345,15.06399112,546.282819784622,548.1457392788161,1 45711U 20035BG  25257.00010169  .00001238  00000+0  10196-3 0  9999,2 45711  53.0538 109.8098 0001345  89.1352 270.9791 15.06399112292511
STARLINK-1434,45712,53.0509,0.0004465,15.10929159,530.2790390988339,536.4510104069377,1 45712U 20035BH  25257.30835360  .00017747  00000+0  10673-2 0  9992,2 45712  53.0509 106.8279 0004465  92.6322 267.5180 15.10929159292597
